STARLINK-30327          
1 57707U 23129K   26068.51769668  .00007635  00000+0  29314-3 0  9995
2 57707  42.9974  85.9834 0023030  70.8320 289.5022 15.26626807140903
STARLINK-34895          
1 65349U 25189AC  26068.66957316  .00029332  00000+0  99742-3 0  9999
2 65349  53.1576 206.8380 0001267  53.2836 306.8281 15.30236819 31062
